# From NK 1615
P/1996 R2 (Lagerkvist),e,2.5990,40.0400,333.5049,3.772007,0.1345381,0.31415436,328.6887,10/26.0/2025,2000,g 11.5,4.0
# From MPC 75703
P/1998 VS24 (LINEAR),e,5.0298,159.0348,244.9215,4.519915,0.1025672,0.24350163,290.0421,10/26.0/2025,2000,g 13.0,2.0
# From MPC186628
C/1999 J2 (Skiff),h,04/08.6865/2000,86.4077,50.2953,126.9828,1.000792,7.075655,2000,2.0,4.0
# From NK 731
P/1999 RO28 (LONEOS),e,7.5672,137.8407,231.3559,3.424882,0.1555019,0.67215393,359.3307,10/26.0/2025,2000,g 20.0,2.0
# From MPC 75704
P/1999 XN120 (Catalina),e,5.0301,285.2379,161.5251,4.187305,0.1150276,0.21236706,353.5381,10/26.0/2025,2000,g 13.5,2.0
# From MPC188408
C/2000 A1 (Montani),e,24.6133,111.7091,14.2635,17304,0.0000004,0.99944051,0.0000,07/20.1497/2000,2000,g  3.5,4.0
# From NK 744
P/2000 R2 (LINEAR),e,11.6791,160.2684,176.5830,3.468572,0.1525731,0.53057739,354.3093,10/26.0/2025,2000,g 18.0,4.0
# From MPC 43019
P/2001 H5 (NEAT),e,8.3726,328.6821,224.5781,6.093791,0.0655198,0.59948689,240.6341,10/26.0/2025,2000,g 12.0,4.0
# From MPC186628
C/2001 K5 (LINEAR),h,09/30.5386/2002,72.2883,237.4251,47.2306,1.000561,5.212777,2000,4.0,4.0
# From MPC188408
C/2002 CE10 (LINEAR),e,145.3801,147.5540,126.2283,9.766204,0.0322935,0.78931942,263.3758,10/26.0/2025,2000,g 13.0,2.0
# From MPEC 2023-UR6
P/2002 EJ57 (LINEAR),e,4.9904,330.2219,167.2902,6.454708,0.0601020,0.59410007,161.3105,10/26.0/2025,2000,g 12.5,4.0
# From MPC186628
C/2002 J4 (NEAT),h,09/22.6313/2003,46.2328,70.7726,231.0672,1.001372,3.679657,2000,5.5,4.0
# From MPC 75007
C/2002 VQ94 (LINEAR),e,70.6348,35.0708,99.8076,187.2287,0.0003847,0.96393958,2.7683,10/26.0/2025,2000,g  9.5,2.0
# From MPC186628
C/2003 A2 (Gleason),e,8.0708,154.4743,346.5132,6861,0.0000017,0.99834418,0.0000,11/07.3218/2003,2000,g  3.5,4.0
# From MPC 50354
P/2003 F2 (NEAT),e,11.6045,358.9506,193.0622,6.549897,0.0587966,0.53710040,127.8878,10/26.0/2025,2000,g 16.5,2.0
# From MPC105235
P/2003 T12 (SOHO),e,11.0216,174.5725,219.8007,2.584197,0.2372551,0.77009559,113.7167,10/26.0/2025,2000,g 17.0,4.0
# From MPEC 2022-YN2
P/2004 FY140 (LINEAR),e,2.1628,327.2622,254.2928,4.968647,0.0889912,0.19285231,316.8957,10/26.0/2025,2000,g 12.5,2.0
# From MPC 53304
P/2004 R3 (LINEAR-NEAT),e,12.8040,305.1222,37.1094,4.745671,0.0953361,0.25470011,143.1946,10/26.0/2025,2000,g 14.5,4.0
# From MPC 75705
P/2004 V5 (LINEAR-Hill),e,19.3329,47.7384,87.1635,8.050110,0.0431520,0.44924688,332.0052,10/26.0/2025,2000,g  8.0,4.0
# From MPC 75705
P/2004 V5-B (LINEAR-Hill),e,19.3331,47.7388,87.1679,8.050339,0.0431502,0.44926249,331.9644,10/26.0/2025,2000,g  8.0,4.0
# From MPC 54164
P/2005 E1 (Tubbiolo),e,4.2606,335.4888,193.9483,7.072245,0.0524044,0.37747485,39.7580,10/26.0/2025,2000,g 10.0,4.0
# From MPC 74246
P/2005 L1 (McNaught),e,9.4500,125.0222,163.7697,3.878785,0.1290210,0.26982705,175.3540,10/26.0/2025,2000,g  9.5,4.0
# From MPC 75706
P/2005 S2 (Skiff),e,3.1391,161.3286,230.0581,7.982230,0.0437037,0.19830982,308.0420,10/26.0/2025,2000,g  7.5,4.0
# From MPC 73461
P/2005 T3 (Read),e,6.2330,27.6197,7.1499,7.570068,0.0473211,0.17392849,345.8655,10/26.0/2025,2000,g  9.0,4.0
# From MPC 73461
P/2005 T4 (SWAN),e,160.2383,25.7852,41.7627,9.351821,0.0344635,0.93084283,251.9500,10/26.0/2025,2000,g 15.0,4.0
# From MPC 75707
P/2006 HR30 (Siding Spring),e,31.9636,309.7487,117.5252,7.794770,0.0452897,0.84356999,311.1147,10/26.0/2025,2000,g 11.0,4.0
# From MPC 84315
C/2007 D1 (LINEAR),e,41.5165,171.0047,339.7870,1276,0.0000216,0.99314990,0.0000,06/15.4229/2007,2000,g  3.5,4.0
# From MPEC 2024-GJ3
P/2007 K2 (Gibbs),e,7.5893,188.3498,347.0542,7.392238,0.0490388,0.68679669,337.5790,10/26.0/2025,2000,g 14.0,4.0
# From MPC 60925
P/2007 Q2 (Gilmore),e,10.1920,172.2314,162.8337,5.660814,0.0731789,0.66863388,131.4710,10/26.0/2025,2000,g 16.0,4.0
# From MPC185655
C/2007 Q3 (Siding Spring),e,65.8235,149.2804,1.9984,4408,0.0000034,0.99949242,0.0000,10/04.5127/2009,2000,g  4.5,4.0
# From MPC 73462
P/2007 S1 (Zhao),e,5.9627,141.3230,245.2843,3.818999,0.1320626,0.33776350,147.3526,10/26.0/2025,2000,g 13.0,4.0
# From MPEC 2024-GJ3
C/2007 S2 (Lemmon),e,16.9201,296.1338,210.1445,12.49262,0.0223215,0.55729658,139.6881,10/26.0/2025,2000,g  6.5,4.0
# From MPC 61994
P/2007 T2 (Kowalski),e,9.7466,3.3949,359.6647,3.043517,0.1856267,0.78538215,131.5329,10/26.0/2025,2000,g 18.5,4.0
# From MPEC 2024-GJ3
C/2008 E1 (Catalina),e,34.8638,188.8943,270.4002,10.76339,0.0279113,0.55296500,175.0451,10/26.0/2025,2000,g  7.0,4.0
# From MPC 64114
P/2008 O3 (Boattini),e,32.3011,47.6061,341.2019,8.208637,0.0419081,0.69599199,265.6987,10/26.0/2025,2000,g 13.0,4.0
# From MPC 75710
P/2008 Y3 (McNaught),e,38.7796,262.8332,238.1669,8.035121,0.0432728,0.44849146,266.0675,10/26.0/2025,2000,g  8.5,4.0
# From MPC 75710
P/2009 B1 (Boattini),e,22.2598,297.1093,129.0191,6.722887,0.0565419,0.63585333,346.0071,10/26.0/2025,2000,g 13.0,4.0
# From MPC 66466
C/2009 G1 (STEREO),e,107.9820,120.8991,175.4895,446.3697,0.0001045,0.99746053,0.0000,04/16.7681/2009,2000,g  9.0,4.0
# From MPC 75710
P/2009 O3 (Hill),e,16.2459,183.7168,154.4015,7.774180,0.0454697,0.68594559,272.7809,10/26.0/2025,2000,g 12.5,4.0
# From MPC 68902
P/2009 Q5 (McNaught),e,40.9497,160.1905,209.2053,7.426584,0.0486990,0.60917955,286.2479,10/26.0/2025,2000,g 10.0,4.0
# From MPC112389
P/2009 T2 (La Sagra),e,27.5927,216.2936,216.0314,7.706878,0.0460666,0.76745948,265.3515,10/26.0/2025,2000,g 14.0,4.0
# From MPC105235
P/2009 WX51 (Catalina),e,9.5983,31.5216,118.2962,3.082596,0.1821080,0.73973020,328.8493,10/26.0/2025,2000,g 19.0,2.0
# From MPC 74247
P/2009 Y2 (Kowalski),e,29.9726,262.0803,172.2646,6.535714,0.0589881,0.63734017,336.2995,10/26.0/2025,2000,g 13.0,4.0
# From MPC185655
C/2010 B1 (Cardinal),e,102.2605,277.2234,211.6170,2719,0.0000070,0.99891443,0.0000,02/04.1906/2011,2000,g  7.5,4.0
# From MPC 75008
P/2010 C1 (Scotti),e,9.1158,141.5855,2.8835,7.132182,0.0517452,0.26426866,305.0963,10/26.0/2025,2000,g  9.5,4.0
# From MPC 75008
P/2010 D2 (WISE),e,57.1387,319.8788,120.0427,6.714573,0.0566469,0.45161725,324.7858,10/26.0/2025,2000,g 16.0,4.0
# From MPC 75009
P/2010 E2 (Jarnac),e,15.4345,177.8365,8.2041,8.633877,0.0388504,0.72122575,221.4982,10/26.0/2025,2000,g 14.0,4.0
# From MPC 72851
P/2010 H2 (Vales),e,14.2787,64.1894,128.0615,3.834888,0.1312426,0.19789900,30.2215,10/26.0/2025,2000,g  6.0,4.0
# From MPC 70361
P/2010 H3 (SOHO),e,23.1435,77.1743,26.0819,3.034845,0.1864229,0.98558131,0.0000,05/25.2445/2026,2000,g 20.0,2.0
# From MPEC 2024-GJ3
P/2010 H4 (Scotti),e,2.3177,44.7483,179.0741,6.619430,0.0578726,0.26730908,326.8684,10/26.0/2025,2000,g 10.5,4.0
# From MPC 74637
P/2010 H5 (Scotti),e,14.0518,24.4421,175.1961,7.169609,0.0513406,0.15602253,292.9681,10/26.0/2025,2000,g 13.0,2.0
# From MPC 98558
P/2010 J3 (McMillan),e,13.2245,106.5423,157.3986,8.988534,0.0365739,0.72420128,203.3729,10/26.0/2025,2000,g 11.0,4.0
# From MPC 84315
P/2010 JC81 (WISE),e,38.7504,30.8401,12.5181,8.102885,0.0427311,0.77795069,225.9092,10/26.0/2025,2000,g  9.0,4.0
# From MPEC 2024-H77
A/2010 LN135,e,64.3934,184.8871,181.5750,38476,0.0000001,0.99995454,0.0000,05/24.6737/2011,2000,g 14.0,2.0
# From MPC 74248
P/2010 T2 (PANSTARRS),e,7.8543,57.7406,349.9675,5.575129,0.0748724,0.32481953,45.8502,10/26.0/2025,2000,g 11.5,4.0
# From MPEC 2023-J95
C/2010 U3 (Boattini),h,02/28.5742/2019,55.5360,42.9938,88.0999,1.000037,8.440053,2000,1.0,4.0
# From MPC 79021
P/2010 UH55 (Spacewatch),e,8.0374,232.8070,225.3535,6.646371,0.0575211,0.56469695,305.3340,10/26.0/2025,2000,g 11.0,4.0
# From MPC 84021
P/2011 C2 (Gibbs),e,10.8972,11.9648,160.2985,7.407233,0.0488900,0.27150696,247.9835,10/26.0/2025,2000,g  9.0,4.0
# From MPC 79866
P/2011 FR143 (Lemmon),e,15.9614,190.8438,349.6175,6.885178,0.0545546,0.45282397,294.8783,10/26.0/2025,2000,g 14.0,2.0
# From MPC 82317
P/2011 JB15 (Spacewatch-Boattini),e,19.1260,153.5854,110.6386,7.381774,0.0491431,0.31499525,248.6004,10/26.0/2025,2000,g  9.0,4.0
# From MPC 87913
P/2011 N1 (ASH),e,35.7844,77.6268,330.5130,6.232154,0.0633500,0.54537885,309.5693,10/26.0/2025,2000,g 11.5,4.0
# From MPEC 2022-ED3
P/2011 P1 (McNaught),e,5.6507,4.2486,349.1551,7.462934,0.0483437,0.32613874,268.9738,10/26.0/2025,2000,g  9.0,4.0
# From MPEC 2022-HC2
P/2011 S1 (Gibbs),e,2.6880,218.8978,193.0101,8.598988,0.0390871,0.20067572,159.4939,10/26.0/2025,2000,g  8.0,4.0
# From MPEC 2023-UR6
P/2011 V1 (Boattini),e,7.3825,46.4915,269.5960,3.857943,0.1300680,0.54836662,336.6485,10/26.0/2025,2000,g 15.5,4.0
# From MPC 82718
P/2011 W1 (PANSTARRS),e,3.7158,161.7977,283.0799,4.675191,0.0975001,0.28838025,132.0542,10/26.0/2025,2000,g 11.5,4.0
# From MPC 79342
P/2011 Y2 (Boattini),e,6.3928,309.3196,132.0874,6.226728,0.0634329,0.71118688,315.2012,10/26.0/2025,2000,g 15.0,4.0
# From MPEC 2022-K19
P/2012 B1 (PANSTARRS),e,7.6051,36.2085,161.8771,6.543886,0.0588777,0.41032129,266.1636,10/26.0/2025,2000,g  9.0,4.0
# From MPC 78590
P/2012 C3 (PANSTARRS),e,9.0920,135.3677,344.9542,9.748681,0.0323806,0.63011148,359.9758,10/06.0/2011,2000,g 13.0,4.0
# From MPC 84931
P/2012 F2 (PANSTARRS),e,14.6967,226.9311,33.1665,6.349278,0.0616052,0.54092616,283.6408,10/26.0/2025,2000,g 12.0,4.0
# From MPEC 2022-ED3
P/2012 G1 (PANSTARRS),e,12.1682,283.2335,266.0115,4.161978,0.1160792,0.32975313,215.0753,10/26.0/2025,2000,g 15.0,4.0
# From MPC 80898
P/2012 K3 (Gibbs),e,13.1814,125.8027,172.1229,3.633257,0.1423180,0.42171539,322.5892,10/26.0/2025,2000,g 15.0,4.0
# From MPC184408
C/2012 KA51 (Palomar),e,70.7022,344.8081,94.0187,535.1997,0.0000796,0.99090163,0.0000,11/06.0213/2011,2000,g  8.7,4.0
# From MPC 88326
P/2012 NJ (La Sagra),e,84.2901,315.7060,338.3782,8.467580,0.0400005,0.84653470,195.3887,10/26.0/2025,2000,g 14.5,4.0
# From MPC 81470
P/2012 O1 (McNaught),e,7.4280,91.9401,238.2773,3.542871,0.1477989,0.59351341,359.0964,10/26.0/2025,2000,g 17.5,4.0
# From MPC 80899
P/2012 O2 (McNaught),e,24.4556,120.6590,183.4004,3.630620,0.1424731,0.53125851,337.5604,10/26.0/2025,2000,g 17.0,4.0
# From MPC 80900
